start=new Date('2022-01-03T00:00:00.000Z').valueOf();
sats=[{"TLE_LINE1":"1 45750U 20038W   22002.86082529  .00001549  00000-0  12294-3 0  9990","SITE":"AFETR","MEAN_ELEMENT_THEORY":"SGP4","MEAN_ANOMALY":"301.7035","LAUNCH_DATE":"2020-06-13","OBJECT_NAME":"STARLINK-1391","FILE":"3255249","GP_ID":"192942685","CENTER_NAME":"EARTH","RCS_SIZE":"LARGE","TLE_LINE2":"2 45750  53.0534 230.8296 0002369  58.4185 301.7035 15.06386116 86352","APOAPSIS":"548.897","MEAN_MOTION":"15.06386116","INCLINATION":"53.0534","REV_AT_EPOCH":"8635","ARG_OF_PERICENTER":"58.4185","MEAN_MOTION_DDOT":"0.0000000000000","CLASSIFICATION_TYPE":"U","COUNTRY_CODE":"US","DECAY_DATE":null,"EPOCH":"2022-01-02T20:39:35.305056","OBJECT_ID":"2020-038W","TIME_SYSTEM":"UTC","PERIOD":"95.593","RA_OF_ASC_NODE":"230.8296","SEMIMAJOR_AXIS":"6925.391","EPHEMERIS_TYPE":"0","NORAD_CAT_ID":"45750","REF_FRAME":"TEME","OBJECT_TYPE":"PAYLOAD","PERIAPSIS":"545.615","ELEMENT_SET_NO":"999","BSTAR":"0.00012294000000","MEAN_MOTION_DOT":"0.00001549","ECCENTRICITY":"0.00023690"},{"MEAN_MOTION_DDOT":"0.0000000000000","REV_AT_EPOCH":"8634","ARG_OF_PERICENTER":"68.7754","COUNTRY_CODE":"US","CLASSIFICATION_TYPE":"U","APOAPSIS":"548.498","TLE_LINE2":"2 45751  53.0524 231.1289 0001829  68.7754 291.3430 15.06394293 86341","INCLINATION":"53.0524","MEAN_MOTION":"15.06394293","GP_ID":"192942434","FILE":"3255249","OBJECT_NAME":"STARLINK-1464","RCS_SIZE":"LARGE","CENTER_NAME":"EARTH","SITE":"AFETR","TLE_LINE1":"1 45751U 20038X   22002.79078325  .00000172  00000-0  30484-4 0  9995","MEAN_ELEMENT_THEORY":"SGP4","MEAN_ANOMALY":"291.3430","LAUNCH_DATE":"2020-06-13","MEAN_MOTION_DOT":"0.00000172","ECCENTRICITY":"0.00018290","BSTAR":"0.00003048400000","OBJECT_TYPE":"PAYLOAD","PERIAPSIS":"545.964","ELEMENT_SET_NO":"999","NORAD_CAT_ID":"45751","REF_FRAME":"TEME","EPHEMERIS_TYPE":"0","EPOCH":"2022-01-02T18:58:43.672800","DECAY_DATE":null,"TIME_SYSTEM":"UTC","SEMIMAJOR_AXIS":"6925.366","PERIOD":"95.593","RA_OF_ASC_NODE":"231.1289","OBJECT_ID":"2020-038X"},{"EPOCH":"2022-01-02T03:57:18.275904","DECAY_DATE":null,"RA_OF_ASC_NODE":"7.5883","PERIOD":"91.146","SEMIMAJOR_AXIS":"6708.893","TIME_SYSTEM":"UTC","OBJECT_ID":"2020-038Y","REF_FRAME":"TEME","NORAD_CAT_ID":"45752","EPHEMERIS_TYPE":"0","PERIAPSIS":"327.258","OBJECT_TYPE":"PAYLOAD","ELEMENT_SET_NO":"999","ECCENTRICITY":"0.00052170","MEAN_MOTION_DOT":"0.00063480","BSTAR":"0.00033735000000","SITE":"AFETR","TLE_LINE1":"1 45752U 20038Y   22002.16479486  .00063480  00000-0  33735-3 0  9992","LAUNCH_DATE":"2020-06-13","MEAN_ANOMALY":"285.4441","MEAN_ELEMENT_THEORY":"SGP4","FILE":"3255248","GP_ID":"192916692","OBJECT_NAME":"STARLINK-1469","RCS_SIZE":"LARGE","CENTER_NAME":"EARTH","APOAPSIS":"334.258","TLE_LINE2":"2 45752  53.0060   7.5883 0005217  74.7156 285.4441 15.79888659 89387","MEAN_MOTION":"15.79888659","INCLINATION":"53.0060","MEAN_MOTION_DDOT":"0.0000000000000","ARG_OF_PERICENTER":"74.7156","REV_AT_EPOCH":"8938","COUNTRY_CODE":"US","CLASSIFICATION_TYPE":"U"},{"ELEMENT_SET_NO":"999","PERIAPSIS":"545.906","OBJECT_TYPE":"PAYLOAD","ECCENTRICITY":"0.00019140","MEAN_MOTION_DOT":"0.00001237","BSTAR":"0.00010195000000","TIME_SYSTEM":"UTC","RA_OF_ASC_NODE":"231.0933","PERIOD":"95.593","SEMIMAJOR_AXIS":"6925.367","OBJECT_ID":"2020-038Z","EPOCH":"2022-01-02T19:14:39.247296","DECAY_DATE":null,"NORAD_CAT_ID":"45753","REF_FRAME":"TEME","EPHEMERIS_TYPE":"0","MEAN_MOTION":"15.06394088","INCLINATION":"53.0542","APOAPSIS":"548.557","TLE_LINE2":"2 45753  53.0542 231.0933 0001914  62.9425 297.1759 15.06394088 86344","COUNTRY_CODE":"US","CLASSIFICATION_TYPE":"U","MEAN_MOTION_DDOT":"0.0000000000000","REV_AT_EPOCH":"8634","ARG_OF_PERICENTER":"62.9425","MEAN_ELEMENT_THEORY":"SGP4","MEAN_ANOMALY":"297.1759","LAUNCH_DATE":"2020-06-13","SITE":"AFETR","TLE_LINE1":"1 45753U 20038Z   22002.80184314  .00001237  00000-0  10195-3 0  9994","RCS_SIZE":"LARGE","CENTER_NAME":"EARTH","GP_ID":"192941934","FILE":"3255249","OBJECT_NAME":"STARLINK-1476"},{"ARG_OF_PERICENTER":"66.0404","REV_AT_EPOCH":"8634","MEAN_MOTION_DDOT":"0.0000000000000","CLASSIFICATION_TYPE":"U","COUNTRY_CODE":"US","TLE_LINE2":"2 45754  53.0534 231.0738 0001842  66.0404 294.0778 15.06393304 86348","APOAPSIS":"548.510","INCLINATION":"53.0534","MEAN_MOTION":"15.06393304","OBJECT_NAME":"STARLINK-1477","GP_ID":"192942185","FILE":"3255249","CENTER_NAME":"EARTH","RCS_SIZE":"LARGE","TLE_LINE1":"1 45754U 20038AA  22002.80552999  .00001766  00000-0  13744-3 0  9993","SITE":"AFETR","LAUNCH_DATE":"2020-06-13","MEAN_ANOMALY":"294.0778","MEAN_ELEMENT_THEORY":"SGP4","MEAN_MOTION_DOT":"0.00001766","ECCENTRICITY":"0.00018420","BSTAR":"0.00013744000000","PERIAPSIS":"545.958","OBJECT_TYPE":"PAYLOAD","ELEMENT_SET_NO":"999","EPHEMERIS_TYPE":"0","REF_FRAME":"TEME","NORAD_CAT_ID":"45754","DECAY_DATE":null,"EPOCH":"2022-01-02T19:19:57.791136","OBJECT_ID":"2020-038AA","RA_OF_ASC_NODE":"231.0738","PERIOD":"95.593","SEMIMAJOR_AXIS":"6925.369","TIME_SYSTEM":"UTC"},{"INCLINATION":"53.0538","MEAN_MOTION":"15.06395724","TLE_LINE2":"2 45755  53.0538 230.9966 0002005  66.2538 293.8661 15.06395724 86331","APOAPSIS":"548.615","CLASSIFICATION_TYPE":"U","COUNTRY_CODE":"US","ARG_OF_PERICENTER":"66.2538","REV_AT_EPOCH":"8633","MEAN_MOTION_DDOT":"0.0000000000000","LAUNCH_DATE":"2020-06-13","MEAN_ELEMENT_THEORY":"SGP4","MEAN_ANOMALY":"293.8661","TLE_LINE1":"1 45755U 20038AB  22002.82395891  .00001218  00000-0  10068-3 0  9990","SITE":"AFETR","CENTER_NAME":"EARTH","RCS_SIZE":"LARGE","OBJECT_NAME":"STARLINK-1478","GP_ID":"192942935","FILE":"3255249","ELEMENT_SET_NO":"999","PERIAPSIS":"545.838","OBJECT_TYPE":"PAYLOAD","BSTAR":"0.00010068000000","MEAN_MOTION_DOT":"0.00001218","ECCENTRICITY":"0.00020050","OBJECT_ID":"2020-038AB","PERIOD":"95.592","SEMIMAJOR_AXIS":"6925.362","RA_OF_ASC_NODE":"230.9966","TIME_SYSTEM":"UTC","DECAY_DATE":null,"EPOCH":"2022-01-02T19:46:30.049824","EPHEMERIS_TYPE":"0","REF_FRAME":"TEME","NORAD_CAT_ID":"45755"},{"GP_ID":"192941184","FILE":"3255249","OBJECT_NAME":"STARLINK-1484","RCS_SIZE":"LARGE","CENTER_NAME":"EARTH","SITE":"AFETR","TLE_LINE1":"1 45756U 20038AC  22002.82027222  .00000786  00000-0  71701-4 0  9992","LAUNCH_DATE":"2020-06-13","MEAN_ELEMENT_THEORY":"SGP4","MEAN_ANOMALY":"292.3197","MEAN_MOTION_DDOT":"0.0000000000000","ARG_OF_PERICENTER":"67.7981","REV_AT_EPOCH":"8633","COUNTRY_CODE":"US","CLASSIFICATION_TYPE":"U","APOAPSIS":"548.467","TLE_LINE2":"2 45756  53.0532 231.0070 0001782  67.7981 292.3197 15.06393553 86339","MEAN_MOTION":"15.06393553","INCLINATION":"53.0532","REF_FRAME":"TEME","NORAD_CAT_ID":"45756","EPHEMERIS_TYPE":"0","EPOCH":"2022-01-02T19:41:11.519808","DECAY_DATE":null,"PERIOD":"95.593","SEMIMAJOR_AXIS":"6925.368","RA_OF_ASC_NODE":"231.0070","TIME_SYSTEM":"UTC","OBJECT_ID":"2020-038AC","MEAN_MOTION_DOT":"0.00000786","BSTAR":"0.00007170100000","ECCENTRICITY":"0.00017820","OBJECT_TYPE":"PAYLOAD","PERIAPSIS":"545.999","ELEMENT_SET_NO":"999"},{"MEAN_ELEMENT_THEORY":"SGP4","MEAN_ANOMALY":"291.0404","LAUNCH_DATE":"2020-06-13","TLE_LINE1":"1 45757U 20038AD  22002.90504533  .00001454  00000-0  11652-3 0  9998","SITE":"AFETR","CENTER_NAME":"EARTH","RCS_SIZE":"LARGE","OBJECT_NAME":"STARLINK-1486","FILE":"3255249","GP_ID":"192941434","INCLINATION":"53.0537","MEAN_MOTION":"15.06391910","TLE_LINE2":"2 45757  53.0537 230.6267 0001914  69.0789 291.0404 15.06391910 86349","APOAPSIS":"548.564","CLASSIFICATION_TYPE":"U","COUNTRY_CODE":"US","REV_AT_EPOCH":"8634","ARG_OF_PERICENTER":"69.0789","MEAN_MOTION_DDOT":"0.0000000000000","OBJECT_ID":"2020-038AD","TIME_SYSTEM":"UTC","PERIOD":"95.593","RA_OF_ASC_NODE":"230.6267","SEMIMAJOR_AXIS":"6925.373","DECAY_DATE":null,"EPOCH":"2022-01-02T21:43:15.916512","EPHEMERIS_TYPE":"0","NORAD_CAT_ID":"45757","REF_FRAME":"TEME","ELEMENT_SET_NO":"999","PERIAPSIS":"545.913","OBJECT_TYPE":"PAYLOAD","MEAN_MOTION_DOT":"0.00001454","BSTAR":"0.00011652000000","ECCENTRICITY":"0.00019140"},{"OBJECT_NAME":"STARLINK-1487","GP_ID":"192942686","FILE":"3255249","CENTER_NAME":"EARTH","RCS_SIZE":"LARGE","TLE_LINE1":"1 45758U 20038AE  22002.83133012  .00001657  00000-0  13018-3 0  9994","SITE":"AFETR","MEAN_ANOMALY":"297.0783","MEAN_ELEMENT_THEORY":"SGP4","LAUNCH_DATE":"2020-06-13","REV_AT_EPOCH":"8633","ARG_OF_PERICENTER":"63.0409","MEAN_MOTION_DDOT":"0.0000000000000","CLASSIFICATION_TYPE":"U","COUNTRY_CODE":"US","TLE_LINE2":"2 45758  53.0535 230.9549 0001993  63.0409 297.0783 15.06390677 86338","APOAPSIS":"548.622","MEAN_MOTION":"15.06390677","INCLINATION":"53.0535","EPHEMERIS_TYPE":"0","NORAD_CAT_ID":"45758","REF_FRAME":"TEME","DECAY_DATE":null,"EPOCH":"2022-01-02T19:57:06.922368","OBJECT_ID":"2020-038AE","TIME_SYSTEM":"UTC","RA_OF_ASC_NODE":"230.9549","PERIOD":"95.593","SEMIMAJOR_AXIS":"6925.377","BSTAR":"0.00013018000000","MEAN_MOTION_DOT":"0.00001657","ECCENTRICITY":"0.00019930","PERIAPSIS":"545.862","OBJECT_TYPE":"PAYLOAD","ELEMENT_SET_NO":"999"},{"NORAD_CAT_ID":"45759","REF_FRAME":"TEME","EPHEMERIS_TYPE":"0","TIME_SYSTEM":"UTC","PERIOD":"95.593","RA_OF_ASC_NODE":"230.4404","SEMIMAJOR_AXIS":"6925.381","OBJECT_ID":"2020-038AF","EPOCH":"2022-01-02T22:41:39.504768","DECAY_DATE":null,"MEAN_MOTION_DOT":"0.00001822","ECCENTRICITY":"0.00018730","BSTAR":"0.00014122000000","ELEMENT_SET_NO":"999","OBJECT_TYPE":"PAYLOAD","PERIAPSIS":"545.949","RCS_SIZE":"LARGE","CENTER_NAME":"EARTH","GP_ID":"192942435","FILE":"3255249","OBJECT_NAME":"STARLINK-1493","MEAN_ANOMALY":"292.7325","MEAN_ELEMENT_THEORY":"SGP4","LAUNCH_DATE":"2020-06-13","SITE":"AFETR","TLE_LINE1":"1 45759U 20038AF  22002.94559612  .00001822  00000-0  14122-3 0  9996","COUNTRY_CODE":"US","CLASSIFICATION_TYPE":"U","MEAN_MOTION_DDOT":"0.0000000000000","REV_AT_EPOCH":"8635","ARG_OF_PERICENTER":"67.3862","INCLINATION":"53.0529","MEAN_MOTION":"15.06389523","APOAPSIS":"548.543","TLE_LINE2":"2 45759  53.0529 230.4404 0001873  67.3862 292.7325 15.06389523 86358"}];
